start=new Date('2023-06-02T00:00:00.000Z').valueOf();
sats=[{"MEAN_MOTION":"15.06420760","EPOCH":"2023-06-01T12:45:03.106080","RA_OF_ASC_NODE":"250.3731","CENTER_NAME":"EARTH","OBJECT_ID":"2020-012AR","MEAN_MOTION_DOT":"0.00006842","REV_AT_EPOCH":"18256","SEMIMAJOR_AXIS":"6925.285","GP_ID":"232994881","TLE_LINE2":"2 45217  53.0536 250.3731 0001158  89.0760 271.0361 15.06420760182562","ECCENTRICITY":"0.00011580","NORAD_CAT_ID":"45217","RCS_SIZE":"LARGE","DECAY_DATE":null,"BSTAR":"0.00047752000000","PERIAPSIS":"546.348","MEAN_ANOMALY":"271.0361","REF_FRAME":"TEME","OBJECT_TYPE":"PAYLOAD","MEAN_ELEMENT_THEORY":"SGP4","TLE_LINE1":"1 45217U 20012AR  23152.53128595  .00006842  00000-0  47752-3 0  9993","EPHEMERIS_TYPE":"0","APOAPSIS":"547.952","SITE":"AFETR","LAUNCH_DATE":"2020-02-17","INCLINATION":"53.0536","OBJECT_NAME":"STARLINK-1271","COUNTRY_CODE":"US","CLASSIFICATION_TYPE":"U","MEAN_MOTION_DDOT":"0.0000000000000","TIME_SYSTEM":"UTC","FILE":"3922718","ELEMENT_SET_NO":"999","ARG_OF_PERICENTER":"89.0760","PERIOD":"95.591"},{"BSTAR":"0.00061387000000","MEAN_ANOMALY":"265.0204","PERIAPSIS":"546.287","NORAD_CAT_ID":"45219","ECCENTRICITY":"0.00012280","TLE_LINE2":"2 45219  53.0547 230.3942 0001228  95.0925 265.0204 15.06424965182858","RCS_SIZE":"LARGE","DECAY_DATE":null,"SEMIMAJOR_AXIS":"6925.272","REV_AT_EPOCH":"18285","MEAN_MOTION_DOT":"0.00008880","GP_ID":"232993629","CENTER_NAME":"EARTH","RA_OF_ASC_NODE":"230.3942","EPOCH":"2023-06-01T12:42:23.069088","MEAN_MOTION":"15.06424965","OBJECT_ID":"2020-012AT","MEAN_MOTION_DDOT":"0.0000000000000","PERIOD":"95.591","ARG_OF_PERICENTER":"95.0925","ELEMENT_SET_NO":"999","FILE":"3922718","TIME_SYSTEM":"UTC","CLASSIFICATION_TYPE":"U","COUNTRY_CODE":"US","OBJECT_NAME":"STARLINK-1187","SITE":"AFETR","APOAPSIS":"547.987","INCLINATION":"53.0547","LAUNCH_DATE":"2020-02-17","TLE_LINE1":"1 45219U 20012AT  23152.52943367  .00008880  00000-0  61387-3 0  9990","EPHEMERIS_TYPE":"0","MEAN_ELEMENT_THEORY":"SGP4","OBJECT_TYPE":"PAYLOAD","REF_FRAME":"TEME"},{"RA_OF_ASC_NODE":"230.3683","EPOCH":"2023-06-01T12:47:41.573184","MEAN_MOTION":"15.06429896","CENTER_NAME":"EARTH","OBJECT_ID":"2020-012AV","MEAN_MOTION_DOT":"0.00012150","SEMIMAJOR_AXIS":"6925.257","REV_AT_EPOCH":"18284","GP_ID":"232993879","TLE_LINE2":"2 45221  53.0540 230.3683 0001262  83.5795 276.5337 15.06429896182842","NORAD_CAT_ID":"45221","ECCENTRICITY":"0.00012620","DECAY_DATE":null,"RCS_SIZE":"LARGE","BSTAR":"0.00083251000000","PERIAPSIS":"546.248","MEAN_ANOMALY":"276.5337","REF_FRAME":"TEME","EPHEMERIS_TYPE":"0","TLE_LINE1":"1 45221U 20012AV  23152.53312006  .00012150  00000-0  83251-3 0  9993","MEAN_ELEMENT_THEORY":"SGP4","OBJECT_TYPE":"PAYLOAD","APOAPSIS":"547.996","SITE":"AFETR","INCLINATION":"53.0540","LAUNCH_DATE":"2020-02-17","OBJECT_NAME":"STARLINK-1189","COUNTRY_CODE":"US","CLASSIFICATION_TYPE":"U","MEAN_MOTION_DDOT":"0.0000000000000","ELEMENT_SET_NO":"999","FILE":"3922718","TIME_SYSTEM":"UTC","PERIOD":"95.590","ARG_OF_PERICENTER":"83.5795"},{"TLE_LINE1":"1 45222U 20012AW  23152.54048800  .00016532  00000-0  11249-2 0  9998","EPHEMERIS_TYPE":"0","OBJECT_TYPE":"PAYLOAD","MEAN_ELEMENT_THEORY":"SGP4","REF_FRAME":"TEME","INCLINATION":"53.0527","LAUNCH_DATE":"2020-02-17","SITE":"AFETR","APOAPSIS":"547.823","CLASSIFICATION_TYPE":"U","COUNTRY_CODE":"US","OBJECT_NAME":"STARLINK-1191","PERIOD":"95.590","ARG_OF_PERICENTER":"88.6784","ELEMENT_SET_NO":"999","FILE":"3922718","TIME_SYSTEM":"UTC","MEAN_MOTION_DDOT":"0.0000000000000","OBJECT_ID":"2020-012AW","CENTER_NAME":"EARTH","RA_OF_ASC_NODE":"230.3301","MEAN_MOTION":"15.06440916","EPOCH":"2023-06-01T12:58:18.163200","GP_ID":"232995130","SEMIMAJOR_AXIS":"6925.223","REV_AT_EPOCH":"18284","MEAN_MOTION_DOT":"0.00016532","DECAY_DATE":null,"RCS_SIZE":"LARGE","NORAD_CAT_ID":"45222","ECCENTRICITY":"0.00010610","TLE_LINE2":"2 45222  53.0527 230.3301 0001061  88.6784 271.4327 15.06440916182845","MEAN_ANOMALY":"271.4327","PERIAPSIS":"546.353","BSTAR":"0.00112490000000"},{"INCLINATION":"53.0515","LAUNCH_DATE":"2020-02-17","APOAPSIS":"548.046","SITE":"AFETR","REF_FRAME":"TEME","TLE_LINE1":"1 45223U 20012AX  23152.82704337  .00008298  00000-0  57472-3 0  9993","EPHEMERIS_TYPE":"0","MEAN_ELEMENT_THEORY":"SGP4","OBJECT_TYPE":"PAYLOAD","FILE":"3922718","ELEMENT_SET_NO":"999","TIME_SYSTEM":"UTC","PERIOD":"95.590","ARG_OF_PERICENTER":"62.0109","MEAN_MOTION_DDOT":"0.0000000000000","COUNTRY_CODE":"US","CLASSIFICATION_TYPE":"U","OBJECT_NAME":"STARLINK-1212","GP_ID":"232995381","MEAN_MOTION_DOT":"0.00008298","SEMIMAJOR_AXIS":"6925.232","REV_AT_EPOCH":"18289","OBJECT_ID":"2020-012AX","RA_OF_ASC_NODE":"229.0403","EPOCH":"2023-06-01T19:50:56.547168","MEAN_MOTION":"15.06438045","CENTER_NAME":"EARTH","PERIAPSIS":"546.148","MEAN_ANOMALY":"298.1019","BSTAR":"0.00057472000000","RCS_SIZE":"LARGE","DECAY_DATE":null,"TLE_LINE2":"2 45223  53.0515 229.0403 0001370  62.0109 298.1019 15.06438045182890","NORAD_CAT_ID":"45223","ECCENTRICITY":"0.00013700"},{"REF_FRAME":"TEME","EPHEMERIS_TYPE":"0","TLE_LINE1":"1 45225U 20012AZ  23152.44834603  .00011742  00000-0  80524-3 0  9995","OBJECT_TYPE":"PAYLOAD","MEAN_ELEMENT_THEORY":"SGP4","INCLINATION":"53.0532","LAUNCH_DATE":"2020-02-17","APOAPSIS":"547.748","SITE":"AFETR","CLASSIFICATION_TYPE":"U","COUNTRY_CODE":"US","OBJECT_NAME":"STARLINK-1215","ELEMENT_SET_NO":"999","FILE":"3922718","TIME_SYSTEM":"UTC","PERIOD":"95.590","ARG_OF_PERICENTER":"63.9545","MEAN_MOTION_DDOT":"0.0000000000000","OBJECT_ID":"2020-012AZ","RA_OF_ASC_NODE":"230.7427","EPOCH":"2023-06-01T10:45:37.096992","MEAN_MOTION":"15.06428844","CENTER_NAME":"EARTH","GP_ID":"232994129","MEAN_MOTION_DOT":"0.00011742","SEMIMAJOR_AXIS":"6925.260","REV_AT_EPOCH":"18278","RCS_SIZE":"LARGE","DECAY_DATE":null,"TLE_LINE2":"2 45225  53.0532 230.7427 0000900  63.9545 296.1536 15.06428844182784","NORAD_CAT_ID":"45225","ECCENTRICITY":"0.00009000","PERIAPSIS":"546.502","MEAN_ANOMALY":"296.1536","BSTAR":"0.00080524000000"},{"SITE":"AFETR","APOAPSIS":"547.795","INCLINATION":"53.0538","LAUNCH_DATE":"2020-02-17","EPHEMERIS_TYPE":"0","TLE_LINE1":"1 45226U 20012BA  23152.52205459  .00014520  00000-0  99046-3 0  9992","MEAN_ELEMENT_THEORY":"SGP4","OBJECT_TYPE":"PAYLOAD","REF_FRAME":"TEME","MEAN_MOTION_DDOT":"0.0000000000000","PERIOD":"95.589","ARG_OF_PERICENTER":"86.3941","ELEMENT_SET_NO":"999","FILE":"3922718","TIME_SYSTEM":"UTC","CLASSIFICATION_TYPE":"U","COUNTRY_CODE":"US","OBJECT_NAME":"STARLINK-1217","SEMIMAJOR_AXIS":"6925.214","REV_AT_EPOCH":"18275","MEAN_MOTION_DOT":"0.00014520","GP_ID":"232994379","CENTER_NAME":"EARTH","RA_OF_ASC_NODE":"230.4133","EPOCH":"2023-06-01T12:31:45.516576","MEAN_MOTION":"15.06444001","OBJECT_ID":"2020-012BA","BSTAR":"0.00099046000000","MEAN_ANOMALY":"273.7166","PERIAPSIS":"546.363","NORAD_CAT_ID":"45226","ECCENTRICITY":"0.00010340","TLE_LINE2":"2 45226  53.0538 230.4133 0001034  86.3941 273.7166 15.06444001182750","DECAY_DATE":null,"RCS_SIZE":"LARGE"},{"MEAN_MOTION_DDOT":"0.0000000000000","ELEMENT_SET_NO":"999","FILE":"3922718","TIME_SYSTEM":"UTC","PERIOD":"95.590","ARG_OF_PERICENTER":"86.2233","CLASSIFICATION_TYPE":"U","COUNTRY_CODE":"US","OBJECT_NAME":"STARLINK-1221","APOAPSIS":"547.982","SITE":"AFETR","INCLINATION":"53.0533","LAUNCH_DATE":"2020-02-17","REF_FRAME":"TEME","EPHEMERIS_TYPE":"0","TLE_LINE1":"1 45227U 20012BB  23152.47783081  .00013036  00000-0  89163-3 0  9999","OBJECT_TYPE":"PAYLOAD","MEAN_ELEMENT_THEORY":"SGP4","BSTAR":"0.00089163000000","PERIAPSIS":"546.243","MEAN_ANOMALY":"273.8899","TLE_LINE2":"2 45227  53.0533 230.6112 0001256  86.2233 273.8899 15.06432999182751","NORAD_CAT_ID":"45227","ECCENTRICITY":"0.00012560","DECAY_DATE":null,"RCS_SIZE":"LARGE","MEAN_MOTION_DOT":"0.00013036","SEMIMAJOR_AXIS":"6925.247","REV_AT_EPOCH":"18275","GP_ID":"232994631","RA_OF_ASC_NODE":"230.6112","EPOCH":"2023-06-01T11:28:04.581984","MEAN_MOTION":"15.06432999","CENTER_NAME":"EARTH","OBJECT_ID":"2020-012BB"},{"OBJECT_ID":"2020-012BC","RA_OF_ASC_NODE":"230.5983","MEAN_MOTION":"15.06425271","EPOCH":"2023-06-01T11:33:23.403168","CENTER_NAME":"EARTH","GP_ID":"232994882","MEAN_MOTION_DOT":"0.00011886","SEMIMAJOR_AXIS":"6925.271","REV_AT_EPOCH":"18272","RCS_SIZE":"LARGE","DECAY_DATE":null,"TLE_LINE2":"2 45228  53.0527 230.5983 0001174  79.1567 280.9554 15.06425271182729","NORAD_CAT_ID":"45228","ECCENTRICITY":"0.00011740","PERIAPSIS":"546.323","MEAN_ANOMALY":"280.9554","BSTAR":"0.00081491000000","REF_FRAME":"TEME","TLE_LINE1":"1 45228U 20012BC  23152.48152087  .00011886  00000-0  81491-3 0  9994","EPHEMERIS_TYPE":"0","MEAN_ELEMENT_THEORY":"SGP4","OBJECT_TYPE":"PAYLOAD","INCLINATION":"53.0527","LAUNCH_DATE":"2020-02-17","APOAPSIS":"547.949","SITE":"AFETR","COUNTRY_CODE":"US","OBJECT_NAME":"STARLINK-1222","CLASSIFICATION_TYPE":"U","FILE":"3922718","ELEMENT_SET_NO":"999","TIME_SYSTEM":"UTC","PERIOD":"95.591","ARG_OF_PERICENTER":"79.1567","MEAN_MOTION_DDOT":"0.0000000000000"},{"MEAN_MOTION_DOT":"0.00011975","REV_AT_EPOCH":"18189","SEMIMAJOR_AXIS":"6925.249","GP_ID":"232973006","MEAN_MOTION":"15.06432510","EPOCH":"2023-06-01T10:40:18.437376","RA_OF_ASC_NODE":"230.7631","CENTER_NAME":"EARTH","OBJECT_ID":"2020-012BD","BSTAR":"0.00082076000000","PERIAPSIS":"546.416","MEAN_ANOMALY":"287.0883","TLE_LINE2":"2 45229  53.0537 230.7631 0001008  73.0216 287.0883 15.06432510181897","ECCENTRICITY":"0.00010080","NORAD_CAT_ID":"45229","DECAY_DATE":null,"RCS_SIZE":"LARGE","APOAPSIS":"547.812","SITE":"AFETR","LAUNCH_DATE":"2020-02-17","INCLINATION":"53.0537","REF_FRAME":"TEME","OBJECT_TYPE":"PAYLOAD","MEAN_ELEMENT_THEORY":"SGP4","TLE_LINE1":"1 45229U 20012BD  23152.44465784  .00011975  00000-0  82076-3 0  9991","EPHEMERIS_TYPE":"0","MEAN_MOTION_DDOT":"0.0000000000000","TIME_SYSTEM":"UTC","FILE":"3922630","ELEMENT_SET_NO":"999","ARG_OF_PERICENTER":"73.0216","PERIOD":"95.590","OBJECT_NAME":"STARLINK-1226","COUNTRY_CODE":"US","CLASSIFICATION_TYPE":"U"}];
